OPS 6582 (TRANSIT 5B-5) 
1 00965U 64083D   22054.61011645  .00000057  00000+0  67522-4 0  9995
2 00965  90.0267 195.0846 0040431 199.3150 172.3887 13.56769450830080
OSCAR 7 (AO-7)          
1 07530U 74089B   22054.55561698 -.00000019  00000+0  17011-3 0  9994
2 07530 101.8922  34.1208 0011934 260.3784 213.3590 12.53653067163197
UOSAT 2 (UO-11)         
1 14781U 84021B   22054.53385850  .00000451  00000+0  60917-4 0  9992
2 14781  97.6099  47.2279 0007965 346.8494  13.2512 14.83458705 23159
NOAA 9                  
1 15427U 84123A   22054.57102606  .00000045  00000+0  45670-4 0  9991
2 15427  99.0312  25.2537 0015595 125.9493 345.4772 14.16169246920493
LUSAT (LO-19)           
1 20442U 90005G   22054.43198143  .00000060  00000+0  38514-4 0  9992
2 20442  98.7789  17.6473 0012411 139.5322 220.6787 14.33024531676775
ITAMSAT (IO-26)         
1 22826U 93061D   22054.59730070  .00000031  00000+0  29622-4 0  9991
2 22826  98.8952  83.0381 0009184  17.1295 343.0195 14.30488735482139
RADIO ROSTO (RS-15)     
1 23439U 94085A   22054.60747101 -.00000037  00000+0  15882-3 0  9993
2 23439  64.8162 329.7545 0167131 292.0199  66.3042 11.27571178118658
JAS-2 (FO-29)           
1 24278U 96046B   22054.56046262 -.00000052  00000+0 -15828-4 0  9998
2 24278  98.5325  93.8403 0349748 218.6449 138.9188 13.53110555260200
NOAA 15                 
1 25338U 98030A   22054.54939610  .00000049  00000+0  38829-4 0  9997
2 25338  98.6584  85.4995 0009322 269.0438  90.9673 14.26092215237032
TECHSAT 1B (GO-32)      
1 25397U 98043D   22054.58015548  .00000029  00000+0  32140-4 0  9993
2 25397  98.8042   4.8352 0002347  81.8761 278.2683 14.23733452227223
ISS (ZARYA)             
1 25544U 98067A   22054.71846247  .00007002  00000+0  13092-3 0  9998
2 25544  51.6408 178.5088 0005479 158.3395 344.1646 15.49914294327583
ORSTED                  
1 25635U 99008B   22054.57121214  .00000200  00000+0  54978-4 0  9991
2 25635  96.4777 306.0244 0138191 184.0784 175.9300 14.48390406213793
PHASE 3D (AO-40)        
1 26609U 00072B   22053.92273134 -.00000037  00000+0  00000+0 0  9994
2 26609   7.9677 290.1162 7978412 339.1767   1.6606  1.25589032 97714
PCSAT (NO-44)           
1 26931U 01043C   22054.57285358  .00000024  00000+0  41036-4 0  9998
2 26931  67.0534 352.3310 0007422 278.5946  81.4315 14.30664824 65114
SAUDISAT 1C (SO-50)     
1 27607U 02058C   22054.36074558  .00000265  00000+0  57621-4 0  9995
2 27607  64.5547 290.9803 0070238 317.2968  42.2688 14.75928296 31537
CUTE-1 (CO-55)          
1 27844U 03031E   22054.54194910  .00000142  00000+0  83485-4 0  9996
2 27844  98.6815  63.9376 0010929  74.0930 286.1452 14.22385386967677
CUBESAT XI-IV (CO-57)   
1 27848U 03031J   22054.46984034  .00000109  00000+0  69033-4 0  9991
2 27848  98.6864  64.4066 0010874  86.8778 273.3644 14.21951526967481
MOZHAYETS 4 (RS-22)     
1 27939U 03042A   22054.57999845  .00000556  00000+0  10751-3 0  9990
2 27939  98.1713 195.4692 0012530 202.2159 157.8507 14.67148918984349
INMARSAT 4-F1           
1 28628U 05009A   22054.57939745 -.00000262  00000+0  00000+0 0  9991
2 28628   3.5302  33.8452 0002910 315.1769 156.4909  1.00271660 61880
NOAA 18                 
1 28654U 05018A   22054.60294945  .00000110  00000+0  83376-4 0  9993
2 28654  98.9623 125.0767 0013289 294.2557  65.7226 14.12691323863905
CUBESAT XI-V            
1 28895U 05043F   22054.32858052  .00000518  00000+0  10749-3 0  9997
2 28895  98.0873 187.6115 0017622 137.8785 222.3776 14.64106209870710
METOP-A                 
1 29499U 06044A   22054.61098706  .00000630  00000+0  92618-4 0  9995
2 29499  98.4677  95.5290 0198832   5.1816 146.1269 14.66949688793984
CARTOSAT-2 (IRS-P7)     
1 29710U 07001B   22054.53508285  .00010895  00000+0  29527-3 0  9996
2 29710  97.8619 153.8644 0163926  95.7015 266.2939 15.25308192818859
FALCONSAT-3             
1 30776U 07006E   22054.01397628  .00017040  00000+0  34253-3 0  9996
2 30776  35.4331 285.3694 0002800 351.6425   8.4257 15.45759887831824
CAPE-1                  
1 31130U 07012P   22054.58060937  .00000516  00000+0  11933-3 0  9990
2 31130  98.2594 356.0327 0094302 286.4758  72.6094 14.56884826788510
CARTOSAT-2A             
1 32783U 08021A   22054.59808122  .00000251  00000+0  41440-4 0  9996
2 32783  97.9814 115.8911 0013099 169.8912 190.2571 14.78636427746197
CUTE-1.7+APD II (CO-65) 
1 32785U 08021C   22054.48375268  .00001106  00000+0  12286-3 0  9991
2 32785  97.6440  29.0770 0011314 249.4581 110.5423 14.89097550749526
COMPASS-1               
1 32787U 08021E   22054.55518532  .00002075  00000+0  19542-3 0  9992
2 32787  97.5531  40.6010 0012548 161.0512 199.1178 14.94831718751034
AAUSAT-II               
1 32788U 08021F   22054.46593982  .00002027  00000+0  18362-3 0  9991
2 32788  97.5267  43.9671 0012504 138.9114 221.3052 14.96389682751380
DELFI-C3 (DO-64)        
1 32789U 08021G   22054.54380846  .00006183  00000+0  37360-3 0  9990
2 32789  97.3538  85.1314 0011029   7.7205 352.4193 15.10973865754718
SEEDS II (CO-66)        
1 32791U 08021J   22054.52110590  .00001339  00000+0  13752-3 0  9995
2 32791  97.6000  34.7407 0012166 203.4159 156.6508 14.91946522750209
YUBILEINY (RS-30)       
1 32953U 08025A   22054.49572024  .00000021  00000+0  80971-4 0  9994
2 32953  82.4987 254.7885 0019589 147.4768 212.7520 12.43107387624175
FENGYUN 3A              
1 32958U 08026A   22054.49658577  .00000060  00000+0  48919-4 0  9997
2 32958  98.4874  21.8786 0008752   0.5665 359.5520 14.18690306712068
PRISM (HITOMI)          
1 33493U 09002B   22054.48069311  .00003008  00000+0  25583-3 0  9994
2 33493  98.2202  34.7161 0015421 168.9187 191.2377 14.98583921711900
STARS (KUKAI)           
1 33498U 09002G   22054.58572900  .00000749  00000+0  10714-3 0  9992
2 33498  98.1839 304.5929 0009475 258.1147 101.9002 14.79640378704599
KKS-1 (KISEKI)          
1 33499U 09002H   22054.61754123  .00000409  00000+0  67445-4 0  9993
2 33499  98.2353 294.6753 0008341 326.6438  33.4244 14.75824613703454
NOAA 19                 
1 33591U 09005A   22054.59147990  .00000066  00000+0  61072-4 0  9993
2 33591  99.1631  86.2578 0014499 144.9815 215.2312 14.12532172672118
SWISSCUBE               
1 35932U 09051B   22054.56536749  .00000348  00000+0  88784-4 0  9998
2 35932  98.5822 267.2371 0008347  43.3385 316.8467 14.56696924659517
BEESAT-1                
1 35933U 09051C   22054.52255454  .00000300  00000+0  78159-4 0  9999
2 35933  98.5769 268.8946 0006711  56.2784 303.9052 14.56734721659584
ITUPSAT1                
1 35935U 09051E   22054.53958100  .00000269  00000+0  72461-4 0  9994
2 35935  98.5871 268.9961 0009040  56.8976 303.3087 14.55856344659302
XIWANG-1 (HOPE-1)       
1 36122U 09072B   22054.49399131  .00000001  00000+0  11463-3 0  9992
2 36122 100.1687  30.1097 0006882 241.6592 118.3828 13.16366049585819
CARTOSAT-2B             
1 36795U 10035A   22054.43320420  .00000291  00000+0  46871-4 0  9991
2 36795  97.9769 115.9482 0012362 250.3078 109.6799 14.78657511627212
TISAT 1                 
1 36799U 10035E   22054.55211124  .00001218  00000+0  12530-3 0  9992
2 36799  98.1935 260.4752 0013095 107.9087 252.3560 14.92266546630778
FENGYUN 3B              
1 37214U 10059A   22054.51807562  .00000022  00000+0  35876-4 0  9995
2 37214  99.0923  58.4650 0021504 319.0656  40.8887 14.14244658584855
JUGNU                   
1 37839U 11058B   22054.61778856  .00000371  00000+0  55899-4 0  9996
2 37839  19.9605 145.9102 0018968 342.3025  46.5105 14.12751446536027
SRMSAT                  
1 37841U 11058D   22054.59734788  .00000343  00000+0  43179-4 0  9999
2 37841  19.9707 223.1225 0011833 172.8649 250.5794 14.10727099535148
M-CUBED & EXP-1 PRIME   
1 37855U 11061F   22054.40134390  .00005186  00000+0  24375-3 0  9997
2 37855 101.7129 113.5748 0160678  43.3774 317.9956 15.09749856564016
HORYU-2                 
1 38340U 12025D   22054.49065831  .00000705  00000+0  10932-3 0  9996
2 38340  98.2045 131.1766 0010575 228.1554 131.8753 14.76303835515423
METOP-B                 
1 38771U 12049A   22054.61590822  .00000016  00000+0  27274-4 0  9990
2 38771  98.6808 116.0721 0001509  56.3898  98.4957 14.21497531489560
SARAL                   
1 39086U 13009A   22054.57173143  .00000027  00000+0  26412-4 0  9990
2 39086  98.5462 241.8889 0000612 156.8147 203.3064 14.32055247470184
AAUSAT 3                
1 39087U 13009B   22054.49952201  .00000315  00000+0  12312-3 0  9995
2 39087  98.4064 256.8757 0011629 246.3128 113.6843 14.36058397471223
STRAND-1                
1 39090U 13009E   22054.52683743  .00000074  00000+0  40880-4 0  9999
2 39090  98.4109 255.5815 0008042 248.3681 111.6648 14.35246534471052
BRITE-AUSTRIA           
1 39091U 13009F   22054.51004658  .00000059  00000+0  35527-4 0  9996
2 39091  98.4119 254.7210 0009363 256.3089 103.7055 14.35231319471084
UNIBRITE                
1 39092U 13009G   22054.52147838  .00000065  00000+0  37790-4 0  9997
2 39092  98.4150 254.4747 0008289 250.6423 109.3867 14.35102835471046
SOMP                    
1 39134U 13015E   22054.45799800  .00008280  00000+0  33300-3 0  9994
2 39134  64.8629  75.0118 0030660 299.2510  60.5555 15.25102538489450
BEESAT-3                
1 39135U 13015F   22054.56225705  .00005579  00000+0  25390-3 0  9993
2 39135  64.8665 108.2694 0031676 308.9124  50.9180 15.21304462489202
BEESAT-2                
1 39136U 13015G   22054.54389370  .00005110  00000+0  24119-3 0  9990
2 39136  64.8751 115.8472 0010979 273.9239  86.0634 15.20528348488582
NEE-01 PEGASO           
1 39151U 13018B   22054.24460207  .00000689  00000+0  96641-4 0  9992
2 39151  97.9836 160.3992 0015624 264.9967  94.9461 14.80603068476774
CUBEBUG-1 (CAPITAN BETO)
1 39153U 13018D   22054.56588213  .00000864  00000+0  11762-3 0  9992
2 39153  98.0027 164.7342 0015509 258.3094 101.6378 14.81235770476974
